[{"OBJECT_NAME":"YAOGAN-36 04C","OBJECT_ID":"2022-171E","EPOCH":"2026-03-09T18:55:44.889600","MEAN_MOTION":15.29852307,"ECCENTRICITY":0.00066848,"INCLINATION":34.9797,"RA_OF_ASC_NODE":96.6578,"ARG_OF_PERICENTER":275.3761,"MEAN_ANOMALY":84.6192,"EPHEMERIS_TYPE":0,"CLASSIFICATION_TYPE":"U","NORAD_CAT_ID":54750,"ELEMENT_SET_NO":999,"REV_AT_EPOCH":18024,"BSTAR":0.00054591902,"MEAN_MOTION_DOT":0.00016196,"MEAN_MOTION_DDOT":0},{"OBJECT_NAME":"STARLINK-34145","OBJECT_ID":"2025-110Q","EPOCH":"2026-03-09T06:04:14.460096","MEAN_MOTION":15.30190973,"ECCENTRICITY":0.00012115,"INCLINATION":53.1599,"RA_OF_ASC_NODE":28.9353,"ARG_OF_PERICENTER":83.6813,"MEAN_ANOMALY":276.4326,"EPHEMERIS_TYPE":0,"CLASSIFICATION_TYPE":"U","NORAD_CAT_ID":64110,"ELEMENT_SET_NO":999,"REV_AT_EPOCH":4581,"BSTAR":0.0011312018,"MEAN_MOTION_DOT":0.00033285,"MEAN_MOTION_DDOT":0}]
