YAOGAN-36 04C           
1 54750U 22171E   26068.78871400  .00016196  00000+0  54592-3 0  9991
2 54750  34.9797  96.6578 0006685 275.3761  84.6192 15.29852307180246
STARLINK-34145          
1 64110U 25110Q   26068.25294514  .00033285  00000+0  11312-2 0  9995
2 64110  53.1599  28.9353 0001211  83.6813 276.4326 15.30190973 45816
